[{"OBJECT_NAME":"STARLINK-34382","OBJECT_ID":"2025-139D","EPOCH":"2026-03-09T10:52:04.623456","MEAN_MOTION":15.30185357,"ECCENTRICITY":0.00012072,"INCLINATION":53.1577,"RA_OF_ASC_NODE":128.4386,"ARG_OF_PERICENTER":68.0402,"MEAN_ANOMALY":292.0727,"EPHEMERIS_TYPE":0,"CLASSIFICATION_TYPE":"U","NORAD_CAT_ID":64667,"ELEMENT_SET_NO":999,"REV_AT_EPOCH":4024,"BSTAR":0.000723606,"MEAN_MOTION_DOT":0.00021123,"MEAN_MOTION_DDOT":0},{"OBJECT_NAME":"NOAA 16 DEB","OBJECT_ID":"2000-055BK","EPOCH":"2026-03-09T02:17:10.174560","MEAN_MOTION":15.30191008,"ECCENTRICITY":0.00052528,"INCLINATION":98.9831,"RA_OF_ASC_NODE":305.6383,"ARG_OF_PERICENTER":26.64,"MEAN_ANOMALY":333.5104,"EPHEMERIS_TYPE":0,"CLASSIFICATION_TYPE":"U","NORAD_CAT_ID":41128,"ELEMENT_SET_NO":999,"REV_AT_EPOCH":53406,"BSTAR":0.017668961,"MEAN_MOTION_DOT":0.00549039,"MEAN_MOTION_DDOT":0}]
